0 ERS 9
1 00635U 63030B   13283.53110362  .00000000  00000-0  10000-3 0  9819
2 00635 088.4292 113.3300 0045539 359.0739 001.0382 08.57940079573505
0 ERS 9
1 00635U 63030B   13283.53309582  .00000002  00000-0  00000+0 0  9809
2 00635 088.4087 113.3259 0045251 359.6655 006.5959 08.57940748573507
0 ERS 9
1 00635U 63030B   13289.47746831 -.00000017  00000-0 -98926-2 0  9816
2 00635 088.4122 112.9975 0045302 353.6763 006.3511 08.57941026574006
0 ERS 9
1 00635U 63030B   13293.90809888  .00000001  00000-0 -49555-3 0  9829
2 00635 088.4107 112.7515 0045285 349.2508 010.7371 08.57940614574381
